JY1SAT (JO-97)          
1 43803U 18099AX  26068.68634132  .00017774  00000+0  60804-3 0  9996
2 43803  97.4249 131.3625 0004723 256.6795 103.3919 15.30302628398390
STARLINK-36496          
1 67329U 26002AA  26068.06517928  .00037861  00000+0  13789-2 0  9991
2 67329  43.0006 328.7667 0001739 272.1531  87.9121 15.27564785 10966
